NOAA 15                 
1 25338U 98030A   22016.38143734  .00000088  00000+0  55247-4 0  9997
2 25338  98.6619  47.7727 0010744  26.2853 333.8870 14.26082778231595
DMSP 5D-3 F15 (USA 147) 
1 25991U 99067A   22015.96629902  .00000057  00000+0  51781-4 0  9997
2 25991  99.0398   5.0396 0009208 260.8854 120.5453 14.16491882142181
METEOSAT-8 (MSG-1)      
1 27509U 02040B   22016.23432990  .00000144  00000+0  00000+0 0  9999
2 27509   7.7577  51.4575 0000313 354.6062 195.4440  1.00266760 71078
DMSP 5D-3 F16 (USA 172) 
1 28054U 03048A   22016.50368205  .00000018  00000+0  33506-4 0  9993
2 28054  98.9753   6.6334 0007891  33.5196  74.0045 14.13648266941551
NOAA 18                 
1 28654U 05018A   22016.42748911  .00000143  00000+0  10114-3 0  9993
2 28654  98.9694  86.8677 0014761  44.3918 315.8434 14.12677705858607
METEOSAT-9 (MSG-2)      
1 28912U 05049B   22015.86783878  .00000025  00000+0  00000+0 0  9990
2 28912   5.6797  67.2624 0001688 207.4259 156.2893  1.00271196 58865
FORMOSAT-3 FM6          
1 29047U 06011A   22016.42763547  .00000398  00000+0  17183-3 0  9991
2 29047  71.9788  10.1851 0049053 147.4009 213.0172 14.28881997823888
FORMOSAT-3 FM1          
1 29048U 06011B   22015.83060452  .00000118  00000+0  62534-4 0  9992
2 29048  71.9667 281.6437 0041778 106.3214 254.2523 14.28843777826231
FORMOSAT-3 FM5          
1 29049U 06011C   22015.80003724  .00000168  00000+0  82087-4 0  9999
2 29049  72.0207  96.6422 0033160 128.9255 231.4847 14.28926559822022
FORMOSAT-3 FM3          
1 29050U 06011D   22016.11753079  .00000420  00000+0  97895-4 0  9995
2 29050  72.0147 182.9337 0049966 352.5388   7.5015 14.59210136840686
FORMOSAT-3 FM4          
1 29051U 06011E   22015.92636220  .00000181  00000+0  85719-4 0  9998
2 29051  72.0057 357.3161 0067961   4.2575 355.9124 14.28959380824628
FORMOSAT-3 FM2          
1 29052U 06011F   22016.51323637  .00000212  00000+0  98931-4 0  9995
2 29052  72.0343  72.0536 0037894  82.7984 277.7459 14.29068518823098
EWS-G1 (GOES 13)        
1 29155U 06018A   22016.07271666  .00000049  00000+0  00000+0 0  9994
2 29155   0.3997 100.0157 0006070 150.5208 312.7986  1.00275636 57334
METOP-A                 
1 29499U 06044A   22016.39627403  .00000626  00000+0  91547-4 0  9995
2 29499  98.4722  56.0404 0199943 124.3342 298.4909 14.66889856791234
DMSP 5D-3 F17 (USA 191) 
1 29522U 06050A   22016.44581562  .00000071  00000+0  60189-4 0  9992
2 29522  98.7747  34.2891 0009342 339.0079  21.0709 14.14064865784423
FENGYUN 3A              
1 32958U 08026A   22015.91796792  .00000031  00000+0  34894-4 0  9998
2 32958  98.4810 344.9679 0009809 102.7664 257.4609 14.18683546706702
FENGYUN 2E              
1 33463U 08066A   22015.14354676 -.00000193  00000+0  00000+0 0  9997
2 33463   5.5649  66.1695 0003739 335.2504 211.4980  1.00266958 47909
NOAA 19                 
1 33591U 09005A   22016.41180966  .00000084  00000+0  70968-4 0  9996
2 33591  99.1666  47.2159 0013057 253.9636 106.0097 14.12522562666986
GOES 14                 
1 35491U 09033A   22016.49957293 -.00000079  00000+0  00000+0 0  9991
2 35491   0.0732 299.7957 0014580 288.3603 323.1623  1.00271429 45984
METEOR-M 1              
1 35865U 09049A   22016.16354248  .00000034  00000+0  34231-4 0  9996
2 35865  98.5078 351.7217 0001663 336.5350  23.5752 14.22299888640044
DMSP 5D-3 F18 (USA 210) 
1 35951U 09057A   22016.56532924  .00000149  00000+0  10182-3 0  9999
2 35951  98.7049 359.8427 0011382 154.7937 205.3793 14.13432362631661
GOES 15                 
1 36411U 10008A   22016.47392411  .00000069  00000+0  00000+0 0  9999
2 36411   0.0953 269.2172 0000941  55.4116 193.4968  1.00270804 43491
COMS 1                  
1 36744U 10032A   22015.89278323 -.00000331  00000+0  00000+0 0  9998
2 36744   0.6901  96.1515 0001167 200.7761 267.9493  1.00272479 34916
FENGYUN 3B              
1 37214U 10059A   22016.10177048  .00000067  00000+0  59268-4 0  9997
2 37214  99.0906  19.3831 0023215  65.9024 294.4574 14.14241996579429
SUOMI NPP               
1 37849U 11061A   22016.45593613  .00000037  00000+0  38068-4 0  9995
2 37849  98.7192 317.2305 0001441  78.9097  28.0114 14.19573642529622
FENGYUN 2F              
1 38049U 12002A   22015.92202271 -.00000347  00000+0  00000+0 0  9997
2 38049   3.4227  80.8288 0005114 354.1858 124.2922  1.00280033 36719
METEOSAT-10 (MSG-3)     
1 38552U 12035B   22015.79727920  .00000075  00000+0  00000+0 0  9997
2 38552   1.3321  30.5226 0000625 228.7190 152.2470  1.00277603 34683
METOP-B                 
1 38771U 12049A   22016.45734203  .00000056  00000+0  45521-4 0  9992
2 38771  98.6879  78.5313 0002117 108.6776   4.2088 14.21502752484139
FENGYUN 3C              
1 39260U 13052A   22016.05584692  .00000010  00000+0  25919-4 0  9991
2 39260  98.4744  51.7448 0011189   0.5222 359.5979 14.15893906430356
METEOR-M 2              
1 40069U 14037A   22016.48106015 -.00000029  00000+0  55495-5 0  9994
2 40069  98.4439  41.1306 0006705  51.1241 309.0541 14.20694911390286
HIMAWARI-8              
1 40267U 14060A   22015.82344469 -.00000261  00000+0  00000+0 0  9998
2 40267   0.0236 302.3814 0001103 348.4923 261.4478  1.00273743 26581
FENGYUN 2G              
1 40367U 14090A   22016.38949124 -.00000291  00000+0  00000+0 0  9996
2 40367   1.5549  90.9104 0003124 316.3408 308.4625  1.00277253 25860
METEOSAT-11 (MSG-4)     
1 40732U 15034A   22015.86714104  .00000008  00000+0  00000+0 0  9996
2 40732   0.2464 326.6461 0001054 115.9700 344.3916  1.00272820 23855
ELEKTRO-L 2             
1 41105U 15074A   22016.43850792 -.00000104  00000+0  00000+0 0  9991
2 41105   2.6080  89.9356 0001607 136.6046  32.6979  1.00271329 22341
HIMAWARI-9              
1 41836U 16064A   22015.89522535 -.00000261  00000+0  00000+0 0  9996
2 41836   0.0163  98.5162 0000911 200.4849 279.3246  1.00270774 19015
GOES 16                 
1 41866U 16071A   22016.42390691 -.00000234  00000+0  00000+0 0  9993
2 41866   0.0799 250.7994 0001109  72.9281 229.5135  1.00272450 18937
FENGYUN 4A              
1 41882U 16077A   22015.95540727 -.00000315  00000+0  00000+0 0  9991
2 41882   0.0473  57.4798 0005951   1.0953 145.2910  1.00268442 18803
CYGFM05                 
1 41884U 16078A   22016.43357662  .00001903  00000+0  99801-4 0  9997
2 41884  34.9571  67.9238 0015371 171.9123 188.1839 15.15437298281804
CYGFM04                 
1 41885U 16078B   22015.81334198  .00001667  00000+0  86436-4 0  9995
2 41885  34.9504  61.8522 0013892 181.9614 178.1044 15.15942608281647
CYGFM02                 
1 41886U 16078C   22015.80641719  .00001644  00000+0  85225-4 0  9995
2 41886  34.9595  64.0302 0014567 176.2129 183.8695 15.15953275281723
CYGFM01                 
1 41887U 16078D   22016.47952661  .00001893  00000+0  99928-4 0  9992
2 41887  34.9537  69.7504 0015785 171.9176 188.1792 15.15215656281789
CYGFM08                 
1 41888U 16078E   22016.17950920  .00001739  00000+0  90846-4 0  9995
2 41888  34.9508  64.9521 0015093 179.9813 180.0901 15.15641148281773
CYGFM06                 
1 41889U 16078F   22016.44673648  .00005219  00000+0  26676-3 0  9991
2 41889  34.9590  58.7529 0013513 182.0005 178.0655 15.15970052281892
CYGFM07                 
1 41890U 16078G   22016.16258658  .00001758  00000+0  91136-4 0  9990
2 41890  34.9528  59.3564 0013378 183.8567 176.2043 15.15932883281859
CYGFM03                 
1 41891U 16078H   22014.44830772  .00001304  00000+0  68061-4 0  9991
2 41891  34.9559  70.4521 0012709 166.5801 193.5251 15.15921259281439
FENGYUN 3D              
1 43010U 17072A   22016.49050225  .00000004  00000+0  22915-4 0  9999
2 43010  98.7994 321.9883 0002000   9.4501 350.6696 14.19177374216212
NOAA 20                 
1 43013U 17073A   22016.39867677  .00000021  00000+0  30715-4 0  9995
2 43013  98.7432 317.0011 0001369 101.7505 258.3825 14.19524402215651
GOES 17                 
1 43226U 18022A   22015.76806108  .00000112  00000+0  00000+0 0  9998
2 43226   0.0687 246.7540 0000561  43.5990 324.1202  1.00269734 14247
FENGYUN 2H              
1 43491U 18050A   22016.09826937 -.00000110  00000+0  00000+0 0  9991
2 43491   0.7665 100.8668 0002742  45.9764  82.8787  1.00267590 13336
METOP-C                 
1 43689U 18087A   22016.47230021  .00000056  00000+0  45418-4 0  9990
2 43689  98.7075  78.7358 0003889 114.4104 245.7479 14.21489240165712
GEO-KOMPSAT-2A          
1 43823U 18100A   22015.89278323 -.00000330  00000+0  00000+0 0  9997
2 43823   0.0252 129.2879 0000522 248.6284 187.0415  1.00271632 11440
METEOR-M2 2             
1 44387U 19038A   22016.48973293 -.00000002  00000+0  18345-4 0  9990
2 44387  98.7017 338.6668 0001897  35.6185 324.5118 14.23697158131783
FENGYUN 3E              
1 49008U 21062A   22016.50192290 -.00000021  00000+0  10885-4 0  9990
2 49008  98.7079  20.8732 0003037  79.0341 281.1181 14.19817787 27758